{"type": "FeatureCollection", "features": [{"type": "Feature", "properties": {"norad_id": 25730, "name": "FENGYUN 1C", "group": "fengyun-1c-debris", "lat": 61.69567450880986, "lon": 44.583852406319416, "alt_km": 791.6926217954897, "timestamp": "2025-12-21T07:34:34.788345+00:00", "meta": {"OBJECT_NAME": "FENGYUN 1C", "OBJECT_ID": "1999-025A", "EPOCH": "2025-12-20T17:48:41.372928", "MEAN_MOTION": 14.26089069, "ECCENTRICITY": 0.00103798, "INCLINATION": 98.883, "RA_OF_ASC_NODE": 60.8844, "ARG_OF_PERICENTER": 46.7026, "MEAN_ANOMALY": 313.5018, "EPHEMERIS_TYPE": 0, "CLASSIFICATION_TYPE": "U", "NORAD_CAT_ID": 25730, "ELEMENT_SET_NO": 999, "REV_AT_EPOCH": 37251, "BSTAR": 0.00076861047, "MEAN_MOTION_DOT": 1.793e-05, "MEAN_MOTION_DDOT": 0}, "tle": {"line1": "1 25730U 99025A   25354.74214552  .00001793  00000+0  76861-3 0  9991", "line2": "2 25730  98.8830  60.8844 0010379  46.7026 313.5018 14.26089069372514"}}, "geometry": {"type": "Point", "coordinates": [44.583852406319416, 61.69567450880986]}}, {"type": "Feature", "properties": {"norad_id": 29733, "name": "FENGYUN 1C DEB", "group": "fengyun-1c-debris", "lat": -15.337212029626526, "lon": 52.63144540640202, "alt_km": 1693.4259774262446, "timestamp": "2025-12-21T07:34:34.788361+00:00", "meta": {"OBJECT_NAME": "FENGYUN 1C DEB", "OBJECT_ID": "1999-025X", "EPOCH": "2025-12-20T02:12:18.520128", "MEAN_MOTION": 12.96483633, "ECCENTRICITY": 0.05697528, "INCLINATION": 99.2243, "RA_OF_ASC_NODE": 49.0393, "ARG_OF_PERICENTER": 185.1112, "MEAN_ANOMALY": 208.3107, "EPHEMERIS_TYPE": 0, "CLASSIFICATION_TYPE": "U", "NORAD_CAT_ID": 29733, "ELEMENT_SET_NO": 999, "REV_AT_EPOCH": 89215, "BSTAR": 0.001449954, "MEAN_MOTION_DOT": 8.42e-06, "MEAN_MOTION_DDOT": 0}, "tle": {"line1": "1 29733U 99025X   25354.09188102  .00000842  00000+0  14500-2 0  9992", "line2": "2 29733  99.2243  49.0393 0569752 185.1112 208.3107 12.96483633892157"}}, "geometry": {"type": "Point", "coordinates": [52.63144540640202, -15.337212029626526]}}, {"type": "Feature", "properties": {"norad_id": 29734, "name": "FENGYUN 1C DEB", "group": "fengyun-1c-debris", "lat": 5.150343927524483, "lon": -77.01660719554322, "alt_km": 836.4432212163474, "timestamp": "2025-12-21T07:34:34.788372+00:00", "meta": {"OBJECT_NAME": "FENGYUN 1C DEB", "OBJECT_ID": "1999-025Y", "EPOCH": "2025-12-20T18:39:54.597600", "MEAN_MOTION": 12.91346994, "ECCENTRICITY": 0.06156699, "INCLINATION": 99.1705, "RA_OF_ASC_NODE": 283.3677, "ARG_OF_PERICENTER": 353.5241, "MEAN_ANOMALY": 30.5966, "EPHEMERIS_TYPE": 0, "CLASSIFICATION_TYPE": "U", "NORAD_CAT_ID": 29734, "ELEMENT_SET_NO": 999, "REV_AT_EPOCH": 88652, "BSTAR": 0.0027522568, "MEAN_MOTION_DOT": 1.682e-05, "MEAN_MOTION_DDOT": 0}, "tle": {"line1": "1 29734U 99025Y   25354.77771525  .00001682  00000+0  27523-2 0  9997", "line2": "2 29734  99.1705 283.3677 0615669 353.5241  30.5966 12.91346994886526"}}, "geometry": {"type": "Point", "coordinates": [-77.01660719554322, 5.150343927524483]}}, {"type": "Feature", "properties": {"norad_id": 29735, "name": "FENGYUN 1C DEB", "group": "fengyun-1c-debris", "lat": 42.1741387126053, "lon": 97.46429808037631, "alt_km": 843.8959795642295, "timestamp": "2025-12-21T07:34:34.788382+00:00", "meta": {"OBJECT_NAME": "FENGYUN 1C DEB", "OBJECT_ID": "1999-025Z", "EPOCH": "2025-12-20T17:40:54.072480", "MEAN_MOTION": 12.75060451, "ECCENTRICITY": 0.06975017, "INCLINATION": 99.3914, "RA_OF_ASC_NODE": 268.3598, "ARG_OF_PERICENTER": 157.458, "MEAN_ANOMALY": 205.8805, "EPHEMERIS_TYPE": 0, "CLASSIFICATION_TYPE": "U", "NORAD_CAT_ID": 29735, "ELEMENT_SET_NO": 999, "REV_AT_EPOCH": 87517, "BSTAR": 0.001470436, "MEAN_MOTION_DOT": 8.26e-06, "MEAN_MOTION_DDOT": 0}, "tle": {"line1": "1 29735U 99025Z   25354.73673695  .00000826  00000+0  14704-2 0  9999", "line2": "2 29735  99.3914 268.3598 0697501 157.4580 205.8805 12.75060451875179"}}, "geometry": {"type": "Point", "coordinates": [97.46429808037631, 42.1741387126053]}}, {"type": "Feature", "properties": {"norad_id": 29736, "name": "FENGYUN 1C DEB", "group": "fengyun-1c-debris", "lat": 74.3970893287696, "lon": 136.67737603616692, "alt_km": 1511.7186086880056, "timestamp": "2025-12-21T07:34:34.788393+00:00", "meta": {"OBJECT_NAME": "FENGYUN 1C DEB", "OBJECT_ID": "1999-025AA", "EPOCH": "2025-12-19T23:22:44.870016", "MEAN_MOTION": 12.57503149, "ECCENTRICITY": 0.0724856, "INCLINATION": 99.4031, "RA_OF_ASC_NODE": 171.9873, "ARG_OF_PERICENTER": 183.1755, "MEAN_ANOMALY": 312.1954, "EPHEMERIS_TYPE": 0, "CLASSIFICATION_TYPE": "U", "NORAD_CAT_ID": 29736, "ELEMENT_SET_NO": 999, "REV_AT_EPOCH": 86635, "BSTAR": 0.0014432, "MEAN_MOTION_DOT": 6.26e-06, "MEAN_MOTION_DDOT": 0}, "tle": {"line1": "1 29736U 99025AA  25353.97413044  .00000626  00000+0  14432-2 0  9991", "line2": "2 29736  99.4031 171.9873 0724856 183.1755 312.1954 12.57503149866353"}}, "geometry": {"type": "Point", "coordinates": [136.67737603616692, 74.3970893287696]}}, {"type": "Feature", "properties": {"norad_id": 29737, "name": "FENGYUN 1C DEB", "group": "fengyun-1c-debris", "lat": 63.37737770757457, "lon": -70.72141056704804, "alt_km": 1057.1338836871118, "timestamp": "2025-12-21T07:34:34.788402+00:00", "meta": {"OBJECT_NAME": "FENGYUN 1C DEB", "OBJECT_ID": "1999-025AB", "EPOCH": "2025-12-20T16:40:20.154144", "MEAN_MOTION": 12.65673558, "ECCENTRICITY": 0.06954355, "INCLINATION": 99.5802, "RA_OF_ASC_NODE": 308.4483, "ARG_OF_PERICENTER": 121.2034, "MEAN_ANOMALY": 1.9894, "EPHEMERIS_TYPE": 0, "CLASSIFICATION_TYPE": "U", "NORAD_CAT_ID": 29737, "ELEMENT_SET_NO": 999, "REV_AT_EPOCH": 86969, "BSTAR": 0.0028507804, "MEAN_MOTION_DOT": 1.359e-05, "MEAN_MOTION_DDOT": 0}, "tle": {"line1": "1 29737U 99025AB  25354.69467771  .00001359  00000+0  28508-2 0  9991", "line2": "2 29737  99.5802 308.4483 0695435 121.2034   1.9894 12.65673558869695"}}, "geometry": {"type": "Point", "coordinates": [-70.72141056704804, 63.37737770757457]}}, {"type": "Feature", "properties": {"norad_id": 29738, "name": "FENGYUN 1C DEB", "group": "fengyun-1c-debris", "lat": -36.115867384024554, "lon": 167.635328040002, "alt_km": 938.8605493693449, "timestamp": "2025-12-21T07:34:34.788412+00:00", "meta": {"OBJECT_NAME": "FENGYUN 1C DEB", "OBJECT_ID": "1999-025AC", "EPOCH": "2025-12-20T20:19:53.404896", "MEAN_MOTION": 12.61067346, "ECCENTRICITY": 0.08651325, "INCLINATION": 99.4094, "RA_OF_ASC_NODE": 160.3035, "ARG_OF_PERICENTER": 276.9344, "MEAN_ANOMALY": 73.4203, "EPHEMERIS_TYPE": 0, "CLASSIFICATION_TYPE": "U", "NORAD_CAT_ID": 29738, "ELEMENT_SET_NO": 999, "REV_AT_EPOCH": 86319, "BSTAR": 0.0021710667, "MEAN_MOTION_DOT": 1.621e-05, "MEAN_MOTION_DDOT": 0}, "tle": {"line1": "1 29738U 99025AC  25354.84714589  .00001621  00000+0  21711-2 0  9992", "line2": "2 29738  99.4094 160.3035 0865132 276.9344  73.4203 12.61067346863196"}}, "geometry": {"type": "Point", "coordinates": [167.635328040002, -36.115867384024554]}}, {"type": "Feature", "properties": {"norad_id": 29740, "name": "FENGYUN 1C DEB", "group": "fengyun-1c-debris", "lat": 52.04793479135213, "lon": 36.21273493500114, "alt_km": 1138.342973896435, "timestamp": "2025-12-21T07:34:34.788422+00:00", "meta": {"OBJECT_NAME": "FENGYUN 1C DEB", "OBJECT_ID": "1999-025AE", "EPOCH": "2025-12-20T03:00:13.463712", "MEAN_MOTION": 12.08327469, "ECCENTRICITY": 0.09740841, "INCLINATION": 99.0446, "RA_OF_ASC_NODE": 203.5791, "ARG_OF_PERICENTER": 183.9419, "MEAN_ANOMALY": 175.3525, "EPHEMERIS_TYPE": 0, "CLASSIFICATION_TYPE": "U", "NORAD_CAT_ID": 29740, "ELEMENT_SET_NO": 999, "REV_AT_EPOCH": 83024, "BSTAR": -0.0014442289, "MEAN_MOTION_DOT": -5.81e-06, "MEAN_MOTION_DDOT": 0}, "tle": {"line1": "1 29740U 99025AE  25354.12515583 -.00000581  00000+0 -14442-2 0  9998", "line2": "2 29740  99.0446 203.5791 0974084 183.9419 175.3525 12.08327469830247"}}, "geometry": {"type": "Point", "coordinates": [36.21273493500114, 52.04793479135213]}}, {"type": "Feature", "properties": {"norad_id": 29741, "name": "FENGYUN 1C DEB", "group": "fengyun-1c-debris", "lat": 28.13032279147614, "lon": 52.16961425051091, "alt_km": 1797.5241715071616, "timestamp": "2025-12-21T07:34:34.788432+00:00", "meta": {"OBJECT_NAME": "FENGYUN 1C DEB", "OBJECT_ID": "1999-025AF", "EPOCH": "2025-12-20T14:58:53.224896", "MEAN_MOTION": 12.00968384, "ECCENTRICITY": 0.1025674, "INCLINATION": 99.1737, "RA_OF_ASC_NODE": 226.7189, "ARG_OF_PERICENTER": 48.4346, "MEAN_ANOMALY": 343.2238, "EPHEMERIS_TYPE": 0, "CLASSIFICATION_TYPE": "U", "NORAD_CAT_ID": 29741, "ELEMENT_SET_NO": 999, "REV_AT_EPOCH": 52278, "BSTAR": 0.0052388, "MEAN_MOTION_DOT": 2.04e-05, "MEAN_MOTION_DDOT": 0}, "tle": {"line1": "1 29741U 99025AF  25354.62422714  .00002040  00000+0  52388-2 0  9998", "line2": "2 29741  99.1737 226.7189 1025674  48.4346 343.2238 12.00968384522780"}}, "geometry": {"type": "Point", "coordinates": [52.16961425051091, 28.13032279147614]}}, {"type": "Feature", "properties": {"norad_id": 29748, "name": "FENGYUN 1C DEB", "group": "fengyun-1c-debris", "lat": 72.75961576847473, "lon": 137.8050351191467, "alt_km": 1877.813965215647, "timestamp": "2025-12-21T07:34:34.788442+00:00", "meta": {"OBJECT_NAME": "FENGYUN 1C DEB", "OBJECT_ID": "1999-025AN", "EPOCH": "2025-12-18T18:32:21.128928", "MEAN_MOTION": 11.90388386, "ECCENTRICITY": 0.08620111, "INCLINATION": 99.7832, "RA_OF_ASC_NODE": 282.1412, "ARG_OF_PERICENTER": 0.8877, "MEAN_ANOMALY": 359.3487, "EPHEMERIS_TYPE": 0, "CLASSIFICATION_TYPE": "U", "NORAD_CAT_ID": 29748, "ELEMENT_SET_NO": 999, "REV_AT_EPOCH": 78805, "BSTAR": 0.10881389, "MEAN_MOTION_DOT": 0.00022252, "MEAN_MOTION_DDOT": 0}, "tle": {"line1": "1 29748U 99025AN  25352.77246677  .00022252  00000+0  10881+0 0  9997", "line2": "2 29748  99.7832 282.1412 0862011   0.8877 359.3487 11.90388386788052"}}, "geometry": {"type": "Point", "coordinates": [137.8050351191467, 72.75961576847473]}}]}